[
  {
    "province": "Thừa Thiên Huế",
    "postcode": "49000:49000",
    "chance": "13.02976"
  },
  {
    "province": "Kiên Giang",
    "postcode": "91000:92000",
    "chance": "16.85452"
  },
  {
    "province": "Hải Phòng",
    "postcode": "04000:05000",
    "chance": "16.99204"
  },
  {
    "province": "Gia Lai",
    "postcode": "61000:62000",
    "chance": "15.13847"
  },
  {
    "province": "Bình Định",
    "postcode": "55000:55000",
    "chance": "12.41047"
  },
  {
    "province": "An Giang",
    "postcode": "90000:90000",
    "chance": "19.08352"
  },
  {
    "province": "Hưng Yên",
    "postcode": "17000:17000",
    "chance": "12.98652"
  },
  {
    "province": "Nghệ An",
    "postcode": "43000:44000",
    "chance": "30.90974"
  },
  {
    "province": "Bắc Kạn",
    "postcode": "23000:23000",
    "chance": "3.13905"
  },
  {
    "province": "Quảng Ninh",
    "postcode": "01000:02000",
    "chance": "11.20806"
  },
  {
    "province": "Hà Nội",
    "postcode": "10000:14000",
    "chance": "78.02466"
  },
  {
    "province": "Quảng Bình",
    "postcode": "47000:47000",
    "chance": "7.50485"
  },
  {
    "province": "Bà Rịa Vũng Tàu",
    "postcode": "78000:78000",
    "chance": "10.82136"
  },
  {
    "province": "Thanh Hóa",
    "postcode": "40000:42000",
    "chance": "31.63534"
  },
  {
    "province": "Quảng Ngãi",
    "postcode": "53000:54000",
    "chance": "10.29034"
  },
  {
    "province": "Bến Tre",
    "postcode": "86000:86000",
    "chance": "11.86574"
  },
  {
    "province": "Ninh Thuận",
    "postcode": "59000:59000",
    "chance": "5.90467"
  },
  {
    "province": "Bình Thuận",
    "postcode": "77000:77000",
    "chance": "10.87456"
  },
  {
    "province": "Bắc Giang",
    "postcode": "26000:26000",
    "chance": "11.73509"
  },
  {
    "province": "Lào Cai",
    "postcode": "31000:31000",
    "chance": "6.97678"
  },
  {
    "province": "Bạc Liêu",
    "postcode": "97000:97000",
    "chance": "7.66737"
  },
  {
    "province": "Hà Giang",
    "postcode": "20000:20000",
    "chance": "6.74166"
  },
  {
    "province": "Bắc Ninh",
    "postcode": "16000:16000",
    "chance": "10.51257"
  },
  {
    "province": "Lạng Sơn",
    "postcode": "25000:25000",
    "chance": "7.05389"
  },
  {
    "province": "Bình Dương",
    "postcode": "75000:75000",
    "chance": "22.08572"
  },
  {
    "province": "Quảng Nam",
    "postcode": "51000:52000",
    "chance": "14.95812"
  },
  {
    "province": "Sơn La",
    "postcode": "34000:34000",
    "chance": "11.45401"
  },
  {
    "province": "Cao Bằng",
    "postcode": "21000:21000",
    "chance": "4.61364"
  },
  {
    "province": "Lâm Đồng",
    "postcode": "66000:66000",
    "chance": "11.90625"
  },
  {
    "province": "Tây Ninh",
    "postcode": "80000:80000",
    "chance": "10.70797"
  },
  {
    "province": "Long An",
    "postcode": "82000:83000",
    "chance": "13.94445"
  },
  {
    "province": "Đồng Nai",
    "postcode": "76000:76000",
    "chance": "29.79144"
  },
  {
    "province": "TP Hồ Chí Minh",
    "postcode": "70000:74000",
    "chance": "88.3691"
  },
  {
    "province": "Hải Dương",
    "postcode": "03000:03000",
    "chance": "18.95245"
  },
  {
    "province": "Bình Phước",
    "postcode": "67000:67000",
    "chance": "9.53831"
  },
  {
    "province": "Hà Nam",
    "postcode": "18000:18000",
    "chance": "8.69666"
  },
  {
    "province": "Vĩnh Long",
    "postcode": "85000:85000",
    "chance": "7.6234"
  },
  {
    "province": "Cần Thơ",
    "postcode": "94000:94000",
    "chance": "10.95347"
  },
  {
    "province": "Vĩnh Phúc",
    "postcode": "15000:15000",
    "chance": "10.28619"
  },
  {
    "province": "Đắk Lắk",
    "postcode": "63000:64000",
    "chance": "12.78094"
  },
  {
    "province": "Cà Mau",
    "postcode": "98000:98000",
    "chance": "11.94476"
  },
  {
    "province": "Tiền Giang",
    "postcode": "84000:84000",
    "chance": "16.39031"
  },
  {
    "province": "Phú Thọ",
    "postcode": "35000:35000",
    "chance": "13.59803"
  },
  {
    "province": "Khánh Hòa",
    "postcode": "57000:57000",
    "chance": "11.95305"
  },
  {
    "province": "Đà Nẵng",
    "postcode": "50000:50000",
    "chance": "11.3431"
  },
  {
    "province": "Quảng Trị",
    "postcode": "48000:48000",
    "chance": "6.32375"
  },
  {
    "province": "Hà Tĩnh",
    "postcode": "45000:46000",
    "chance": "11.96922"
  },
  {
    "province": "Trà Vinh",
    "postcode": "87000:87000",
    "chance": "8.36143"
  },
  {
    "province": "Đồng Tháp",
    "postcode": "81000:81000",
    "chance": "14.75836"
  },
  {
    "province": "Hòa Bình",
    "postcode": "36000:36000",
    "chance": "7.63132"
  },
  {
    "province": "Hậu Giang",
    "postcode": "95000:95000",
    "chance": "7.78027"
  },
  {
    "province": "Sóc Trăng",
    "postcode": "96000:96000",
    "chance": "10.51441"
  },
  {
    "province": "Tuyên Quang",
    "postcode": "22000:22000",
    "chance": "6.88446"
  },
  {
    "province": "Đắk Nông",
    "postcode": "65000:65000",
    "chance": "6.45857"
  },
  {
    "province": "Thái Nguyên",
    "postcode": "24000:24000",
    "chance": "12.25479"
  },
  {
    "province": "Kon Tum",
    "postcode": "60000:60000",
    "chance": "5.31249"
  },
  {
    "province": "Điện Biên",
    "postcode": "32000:32000",
    "chance": "4.82771"
  },
  {
    "province": "Phú Yên",
    "postcode": "56000:56000",
    "chance": "8.28384"
  },
  {
    "province": "Thái Bình",
    "postcode": "06000:06000",
    "chance": "16.43601"
  },
  {
    "province": "Ninh Bình",
    "postcode": "08000:08000",
    "chance": "7.32008"
  },
  {
    "province": "Nam Định",
    "postcode": "07000:07000",
    "chance": "16.45861"
  },
  {
    "province": "Lai Châu",
    "postcode": "30000:30000",
    "chance": "3.96994"
  },
  {
    "province": "Yên Bái",
    "postcode": "33000:33000",
    "chance": "8.18781"
  }
]